BEIDOU
1 45807U 20040A   22108.47341076 -.00000352  00000-0  00000+0 0  9995
2 45807   1.5802 301.8676 0005816 339.3334 206.2830  1.00276308  6836